IRIDIUM 161             
1 43478U 18047C   24366.56949075  .00001274  00000+0  37261-3 0  9997
2 43478  86.4494 311.0440 0002253  86.2841 273.8618 14.43286517348312
IRIDIUM 152             
1 43479U 18047D   24366.69826529  .00000428  00000+0  14574-3 0  9992
2 43479  86.3970 310.8497 0002093  82.6003 277.5431 14.34219300346163
IRIDIUM 147             
1 43480U 18047E   24366.91391256  .00000655  00000+0  22664-3 0  9994
2 43480  86.3974 310.7555 0002371  77.2887 282.8574 14.34221231346198
IRIDIUM 110             
1 43481U 18047F   25001.12956275  .00000190  00000+0  60697-4 0  9996
2 43481  86.3975 310.7433 0002050  72.9316 287.2104 14.34217890346215
IRIDIUM 162             
1 43482U 18047G   24366.56317851  .00001368  00000+0  40058-3 0  9995
2 43482  86.4495 310.9441 0001971  79.5079 280.6344 14.43290009348303
IRIDIUM 160             
1 43569U 18061A   24366.79632291  .00000967  00000+0  33825-3 0  9998
2 43569  86.3942 279.2420 0002486  82.1639 277.9839 14.34217436337065
IRIDIUM 166             
1 43570U 18061B   24366.61238904  .00000153  00000+0  47626-4 0  9996
2 43570  86.3966 279.2769 0001890  90.9620 269.1792 14.34218072337062
IRIDIUM 158             
1 43571U 18061C   24366.65044354  .00000421  00000+0  14311-3 0  9997
2 43571  86.3967 279.2706 0001853  79.4249 280.7156 14.34218875337034
IRIDIUM 165             
1 43572U 18061D   24366.46650988 -.00000065  00000+0 -30373-4 0  9996
2 43572  86.3963 279.3836 0002146  84.3289 275.8152 14.34217168337036
IRIDIUM 155             
1 43573U 18061E   24366.63774559  .00001025  00000+0  35899-3 0  9999
2 43573  86.3964 279.2076 0001765  86.6897 273.4501 14.34226868337027
IRIDIUM 154             
1 43574U 18061F   24366.61872846  .00000989  00000+0  34613-3 0  9997
2 43574  86.3969 279.3227 0002198  83.1999 276.9447 14.34221268337079
IRIDIUM 163             
1 43575U 18061G   24366.80900869  .00000426  00000+0  14506-3 0  9991
2 43575  86.3964 279.1754 0001994  81.0444 279.0977 14.34219521337074
IRIDIUM 156             
1 43576U 18061H   24366.78363647  .00000638  00000+0  22070-3 0  9996
2 43576  86.3964 279.1926 0001797  90.4304 269.7097 14.34218975337066
IRIDIUM 164             
1 43577U 18061J   24366.62506707  .00001180  00000+0  41423-3 0  9992
2 43577  86.3966 279.2908 0002316  87.4448 272.7013 14.34223543337084
IRIDIUM 159             
1 43578U 18061K   24366.66312752  .00000766  00000+0  26652-3 0  9998
2 43578  86.3965 279.2229 0002226  82.7294 277.4155 14.34219730337056
IRIDIUM 180             
1 43922U 19002A   24366.87193086  .00000023  00000+0  11084-5 0  9998
2 43922  86.3980 216.0163 0001831  86.1804 273.9601 14.34217820312696
IRIDIUM 176             
1 43923U 19002B   24366.29217080  .00003038  00000+0  47770-3 0  9994
2 43923  86.6098 216.2648 0002752  67.2837 292.8671 14.72261868320845
IRIDIUM 168             
1 43924U 19002C   24366.86558474  .00000755  00000+0  26260-3 0  9997
2 43924  86.3981 216.0814 0002082  84.6077 275.5356 14.34213179312672
IRIDIUM 173             
1 43925U 19002D   24366.85290253  .00000101  00000+0  28855-4 0  9993
2 43925  86.3976 215.9975 0001903  86.1618 273.9795 14.34216989312651
IRIDIUM 169             
1 43926U 19002E   24366.38547620  .00001058  00000+0  33935-3 0  9991
2 43926  86.4222 247.8025 0000835  30.0125 330.1121 14.38613378313625
IRIDIUM 172             
1 43927U 19002F   24366.98609600  .00000521  00000+0  17911-3 0  9995
2 43927  86.3974 215.9481 0002029  84.7214 275.4213 14.34219355312684
IRIDIUM 175             
1 43928U 19002G   24366.42277623  .00001209  00000+0  18774-3 0  9993
2 43928  86.1524 178.2669 0001320 135.4854 224.6468 14.72260587320851
IRIDIUM 171             
1 43929U 19002H   24366.82753357  .00000016  00000+0 -11782-5 0  9991
2 43929  86.3987 216.2614 0002009  98.8541 261.2882 14.34217626312650
IRIDIUM 170             
1 43930U 19002J   24366.84210714  .00003341  00000+0  52577-3 0  9998
2 43930  86.6098 216.0406 0002366  79.8137 280.3347 14.72255648320937
IRIDIUM 167             
1 43931U 19002K   25001.10026415  .00000898  00000+0  31362-3 0  9991
2 43931  86.3974 215.9181 0001760  98.8592 261.2803 14.34217884312696
IRIDIUM 181             
1 56726U 23068S   24366.65928281  .00001398  00000+0  40708-3 0  9999
2 56726  86.6868 278.8545 0002435  92.8794 267.2686 14.43579628 85629
IRIDIUM 177             
1 56727U 23068T   24366.55432735  .00004249  00000+0  55571-3 0  9995
2 56727  86.1977 221.6352 0001740  90.0250 270.1170 14.80224753 87577
